ION SCV-008             
1 55051U 23001AU  26068.82429008  .00008336  00000+0  31423-3 0  9992
2 55051  97.5676 163.6060 0015192   8.5420 351.6074 15.27226640176169
STARLINK-32438          
1 61722U 24196R   26068.36636311  .00001328  00000+0  56976-4 0  9991
2 61722  53.1606 103.0837 0001237  82.1587 277.9555 15.30191866 77102
